{
  "type": "FeatureCollection",
  "features": [
    {
      "type": "Feature",
      "properties": {
        "norad_id": 66690,
        "name": "TRANSPORTER-15AA",
        "group": "last-30-days",
        "lat": -65.79488296036922,
        "lon": 89.36835008555255,
        "alt_km": 520.7051784607029,
        "timestamp": "2025-12-26T23:26:40.920354+00:00",
        "meta_object_name": "TRANSPORTER-15AA",
        "meta_object_id": "2025-276AA",
        "meta_epoch": "2025-12-26T15:49:27.870240",
        "meta_mean_motion": 15.17109637,
        "meta_eccentricity": 0.0003718,
        "meta_inclination": 97.4388,
        "meta_ra_of_asc_node": 72.1595,
        "meta_arg_of_pericenter": 230.0202,
        "meta_mean_anomaly": 130.0705,
        "meta_ephemeris_type": 0,
        "meta_classification_type": "U",
        "meta_norad_cat_id": 66690,
        "meta_element_set_no": 999,
        "meta_rev_at_epoch": 423,
        "meta_bstar": 0.0004956,
        "meta_mean_motion_dot": 9.764e-05,
        "meta_mean_motion_ddot": 0,
        "tle_line1": "1 66690U 25276AA  25360.65935035  .00009764  00000+0  49560-3 0  9993",
        "tle_line2": "2 66690  97.4388  72.1595 0003718 230.0202 130.0705 15.17109637  4230"
      },
      "geometry": {
        "type": "Point",
        "coordinates": [
          89.36835008555255,
          -65.79488296036922
        ]
      }
    },
    {
      "type": "Feature",
      "properties": {
        "norad_id": 66691,
        "name": "TRANSPORTER-15AB",
        "group": "last-30-days",
        "lat": -51.56916969673745,
        "lon": 81.96655403982554,
        "alt_km": 520.1630530025595,
        "timestamp": "2025-12-26T23:26:40.920365+00:00",
        "meta_object_name": "TRANSPORTER-15AB",
        "meta_object_id": "2025-276AB",
        "meta_epoch": "2025-12-26T17:20:37.091328",
        "meta_mean_motion": 15.17379546,
        "meta_eccentricity": 0.000384,
        "meta_inclination": 97.4412,
        "meta_ra_of_asc_node": 72.2359,
        "meta_arg_of_pericenter": 231.2844,
        "meta_mean_anomaly": 128.8046,
        "meta_ephemeris_type": 0,
        "meta_classification_type": "U",
        "meta_norad_cat_id": 66691,
        "meta_element_set_no": 999,
        "meta_rev_at_epoch": 424,
        "meta_bstar": 0.00055434,
        "meta_mean_motion_dot": 0.00011016,
        "meta_mean_motion_ddot": 0,
        "tle_line1": "1 66691U 25276AB  25360.72265152  .00011016  00000+0  55434-3 0  9998",
        "tle_line2": "2 66691  97.4412  72.2359 0003840 231.2844 128.8046 15.17379546  4241"
      },
      "geometry": {
        "type": "Point",
        "coordinates": [
          81.96655403982554,
          -51.56916969673745
        ]
      }
    },
    {
      "type": "Feature",
      "properties": {
        "norad_id": 66692,
        "name": "TRANSPORTER-15AC",
        "group": "last-30-days",
        "lat": -33.528426251651084,
        "lon": 77.46527758095317,
        "alt_km": 519.6155084044412,
        "timestamp": "2025-12-26T23:26:40.920380+00:00",
        "meta_object_name": "TRANSPORTER-15AC",
        "meta_object_id": "2025-276AC",
        "meta_epoch": "2025-12-26T04:36:08.314560",
        "meta_mean_motion": 15.17447229,
        "meta_eccentricity": 0.00017803,
        "meta_inclination": 97.4413,
        "meta_ra_of_asc_node": 71.7258,
        "meta_arg_of_pericenter": 246.4774,
        "meta_mean_anomaly": 113.6272,
        "meta_ephemeris_type": 0,
        "meta_classification_type": "U",
        "meta_norad_cat_id": 66692,
        "meta_element_set_no": 999,
        "meta_rev_at_epoch": 416,
        "meta_bstar": 0.00030393663,
        "meta_mean_motion_dot": 6.017e-05,
        "meta_mean_motion_ddot": 0,
        "tle_line1": "1 66692U 25276AC  25360.19176290  .00006017  00000+0  30394-3 0  9997",
        "tle_line2": "2 66692  97.4413  71.7258 0001780 246.4774 113.6272 15.17447229  4164"
      },
      "geometry": {
        "type": "Point",
        "coordinates": [
          77.46527758095317,
          -33.528426251651084
        ]
      }
    },
    {
      "type": "Feature",
      "properties": {
        "norad_id": 66693,
        "name": "TRANSPORTER-15AD",
        "group": "last-30-days",
        "lat": -30.393755461113027,
        "lon": 76.8707666015202,
        "alt_km": 518.1222089594312,
        "timestamp": "2025-12-26T23:26:40.920391+00:00",
        "meta_object_name": "TRANSPORTER-15AD",
        "meta_object_id": "2025-276AD",
        "meta_epoch": "2025-12-26T17:15:01.219104",
        "meta_mean_motion": 15.17728696,
        "meta_eccentricity": 0.0003271,
        "meta_inclination": 97.4366,
        "meta_ra_of_asc_node": 72.2233,
        "meta_arg_of_pericenter": 256.1636,
        "meta_mean_anomaly": 103.9234,
        "meta_ephemeris_type": 0,
        "meta_classification_type": "U",
        "meta_norad_cat_id": 66693,
        "meta_element_set_no": 999,
        "meta_rev_at_epoch": 424,
        "meta_bstar": 0.00076227,
        "meta_mean_motion_dot": 0.00015334,
        "meta_mean_motion_ddot": 0,
        "tle_line1": "1 66693U 25276AD  25360.71876411  .00015334  00000+0  76227-3 0  9995",
        "tle_line2": "2 66693  97.4366  72.2233 0003271 256.1636 103.9234 15.17728696  4242"
      },
      "geometry": {
        "type": "Point",
        "coordinates": [
          76.8707666015202,
          -30.393755461113027
        ]
      }
    },
    {
      "type": "Feature",
      "properties": {
        "norad_id": 66694,
        "name": "YAM-9",
        "group": "last-30-days",
        "lat": -26.7267268357597,
        "lon": 76.26849953403558,
        "alt_km": 536.6223206094783,
        "timestamp": "2025-12-26T23:26:40.920402+00:00",
        "meta_object_name": "YAM-9",
        "meta_object_id": "2025-276AE",
        "meta_epoch": "2025-12-26T17:13:22.886400",
        "meta_mean_motion": 15.15340438,
        "meta_eccentricity": 0.0013113,
        "meta_inclination": 97.4413,
        "meta_ra_of_asc_node": 72.2413,
        "meta_arg_of_pericenter": 137.8369,
        "meta_mean_anomaly": 222.3874,
        "meta_ephemeris_type": 0,
        "meta_classification_type": "U",
        "meta_norad_cat_id": 66694,
        "meta_element_set_no": 999,
        "meta_rev_at_epoch": 424,
        "meta_bstar": -0.073549,
        "meta_mean_motion_dot": -0.01270509,
        "meta_mean_motion_ddot": 0,
        "tle_line1": "1 66694U 25276AE  25360.71762600 -.01270509  00000+0 -73549-1 0  9992",
        "tle_line2": "2 66694  97.4413  72.2413 0013113 137.8369 222.3874 15.15340438  4248"
      },
      "geometry": {
        "type": "Point",
        "coordinates": [
          76.26849953403558,
          -26.7267268357597
        ]
      }
    },
    {
      "type": "Feature",
      "properties": {
        "norad_id": 66695,
        "name": "IRIDE FM1",
        "group": "last-30-days",
        "lat": 45.397851167484895,
        "lon": 64.9076076287171,
        "alt_km": 507.16153329917506,
        "timestamp": "2025-12-26T23:26:40.920415+00:00",
        "meta_object_name": "IRIDE FM1",
        "meta_object_id": "2025-276AF",
        "meta_epoch": "2025-12-26T10:35:22.917408",
        "meta_mean_motion": 15.18322645,
        "meta_eccentricity": 0.0001934,
        "meta_inclination": 97.4399,
        "meta_ra_of_asc_node": 71.9951,
        "meta_arg_of_pericenter": 145.0721,
        "meta_mean_anomaly": 215.0641,
        "meta_ephemeris_type": 0,
        "meta_classification_type": "U",
        "meta_norad_cat_id": 66695,
        "meta_element_set_no": 999,
        "meta_rev_at_epoch": 420,
        "meta_bstar": 0.00092202,
        "meta_mean_motion_dot": 0.00018888,
        "meta_mean_motion_ddot": 0,
        "tle_line1": "1 66695U 25276AF  25360.44123747  .00018888  00000+0  92202-3 0  9992",
        "tle_line2": "2 66695  97.4399  71.9951 0001934 145.0721 215.0641 15.18322645  4206"
      },
      "geometry": {
        "type": "Point",
        "coordinates": [
          64.9076076287171,
          45.397851167484895
        ]
      }
    },
    {
      "type": "Feature",
      "properties": {
        "norad_id": 66696,
        "name": "IRIDE FM2",
        "group": "last-30-days",
        "lat": -37.29954119785567,
        "lon": 78.1921101015461,
        "alt_km": 519.5458514235415,
        "timestamp": "2025-12-26T23:26:40.920426+00:00",
        "meta_object_name": "IRIDE FM2",
        "meta_object_id": "2025-276AG",
        "meta_epoch": "2025-12-26T17:16:48.083808",
        "meta_mean_motion": 15.17462766,
        "meta_eccentricity": 0.0002525,
        "meta_inclination": 97.4382,
        "meta_ra_of_asc_node": 72.2281,
        "meta_arg_of_pericenter": 246.7875,
        "meta_mean_anomaly": 113.3092,
        "meta_ephemeris_type": 0,
        "meta_classification_type": "U",
        "meta_norad_cat_id": 66696,
        "meta_element_set_no": 999,
        "meta_rev_at_epoch": 424,
        "meta_bstar": 0.00031265,
        "meta_mean_motion_dot": 6.194e-05,
        "meta_mean_motion_ddot": 0,
        "tle_line1": "1 66696U 25276AG  25360.72000097  .00006194  00000+0  31265-3 0  9995",
        "tle_line2": "2 66696  97.4382  72.2281 0002525 246.7875 113.3092 15.17462766  4247"
      },
      "geometry": {
        "type": "Point",
        "coordinates": [
          78.1921101015461,
          -37.29954119785567
        ]
      }
    }
  ]
}